{
  "type": "FeatureCollection",
  "features": [
    {
      "type": "Feature",
      "properties": {
        "norad_id": 35669,
        "name": "COSMOS 2251 DEB",
        "group": "cosmos-2251-debris",
        "lat": -42.62168625045935,
        "lon": 139.5198974563723,
        "alt_km": 856.8269921494484,
        "timestamp": "2025-12-15T10:55:21.541231+00:00",
        "meta_object_name": "COSMOS 2251 DEB",
        "meta_object_id": "1993-036APL",
        "meta_epoch": "2025-12-10T17:55:05.054592",
        "meta_mean_motion": 13.57151778,
        "meta_eccentricity": 0.03880721,
        "meta_inclination": 73.8635,
        "meta_ra_of_asc_node": 162.6479,
        "meta_arg_of_pericenter": 274.7966,
        "meta_mean_anomaly": 80.8943,
        "meta_ephemeris_type": 0,
        "meta_classification_type": "U",
        "meta_norad_cat_id": 35669,
        "meta_element_set_no": 999,
        "meta_rev_at_epoch": 60762,
        "meta_bstar": 0.0012765304,
        "meta_mean_motion_dot": 1.459e-05,
        "meta_mean_motion_ddot": 0,
        "tle_line1": "1 35669U 93036APL 25344.74658628  .00001459  00000+0  12765-2 0  9995",
        "tle_line2": "2 35669  73.8635 162.6479 0388072 274.7966  80.8943 13.57151778607625"
      },
      "geometry": {
        "type": "Point",
        "coordinates": [
          139.5198974563723,
          -42.62168625045935
        ]
      }
    },
    {
      "type": "Feature",
      "properties": {
        "norad_id": 35670,
        "name": "COSMOS 2251 DEB",
        "group": "cosmos-2251-debris",
        "lat": 21.531213161887248,
        "lon": -127.57243927287075,
        "alt_km": 604.6637805259516,
        "timestamp": "2025-12-15T10:55:21.541241+00:00",
        "meta_object_name": "COSMOS 2251 DEB",
        "meta_object_id": "1993-036APM",
        "meta_epoch": "2025-12-14T21:21:55.582560",
        "meta_mean_motion": 14.93987644,
        "meta_eccentricity": 0.0037863,
        "meta_inclination": 73.8951,
        "meta_ra_of_asc_node": 60.1197,
        "meta_arg_of_pericenter": 20.3241,
        "meta_mean_anomaly": 339.9438,
        "meta_ephemeris_type": 0,
        "meta_classification_type": "U",
        "meta_norad_cat_id": 35670,
        "meta_element_set_no": 999,
        "meta_rev_at_epoch": 87759,
        "meta_bstar": 0.00068268578,
        "meta_mean_motion_dot": 7.347e-05,
        "meta_mean_motion_ddot": 0,
        "tle_line1": "1 35670U 93036APM 25348.89022665  .00007347  00000+0  68269-3 0  9996",
        "tle_line2": "2 35670  73.8951  60.1197 0037863  20.3241 339.9438 14.93987644877599"
      },
      "geometry": {
        "type": "Point",
        "coordinates": [
          -127.57243927287075,
          21.531213161887248
        ]
      }
    },
    {
      "type": "Feature",
      "properties": {
        "norad_id": 35671,
        "name": "COSMOS 2251 DEB",
        "group": "cosmos-2251-debris",
        "lat": 28.748676026536085,
        "lon": -114.81943890150977,
        "alt_km": 733.1502815398444,
        "timestamp": "2025-12-15T10:55:21.541251+00:00",
        "meta_object_name": "COSMOS 2251 DEB",
        "meta_object_id": "1993-036APN",
        "meta_epoch": "2025-12-12T06:07:34.704192",
        "meta_mean_motion": 14.48347657,
        "meta_eccentricity": 0.00414664,
        "meta_inclination": 74.018,
        "meta_ra_of_asc_node": 80.2233,
        "meta_arg_of_pericenter": 254.3311,
        "meta_mean_anomaly": 138.579,
        "meta_ephemeris_type": 0,
        "meta_classification_type": "U",
        "meta_norad_cat_id": 35671,
        "meta_element_set_no": 999,
        "meta_rev_at_epoch": 86756,
        "meta_bstar": 0.00036575096,
        "meta_mean_motion_dot": 1.355e-05,
        "meta_mean_motion_ddot": 0,
        "tle_line1": "1 35671U 93036APN 25346.25526278  .00001355  00000+0  36575-3 0  9992",
        "tle_line2": "2 35671  74.0180  80.2233 0041466 254.3311 138.5790 14.48347657867566"
      },
      "geometry": {
        "type": "Point",
        "coordinates": [
          -114.81943890150977,
          28.748676026536085
        ]
      }
    },
    {
      "type": "Feature",
      "properties": {
        "norad_id": 35674,
        "name": "COSMOS 2251 DEB",
        "group": "cosmos-2251-debris",
        "lat": 73.24214528525656,
        "lon": 23.031986229916484,
        "alt_km": 702.8431453376661,
        "timestamp": "2025-12-15T10:55:21.541261+00:00",
        "meta_object_name": "COSMOS 2251 DEB",
        "meta_object_id": "1993-036APR",
        "meta_epoch": "2025-12-13T07:21:29.670624",
        "meta_mean_motion": 14.54226359,
        "meta_eccentricity": 0.00960278,
        "meta_inclination": 74.06,
        "meta_ra_of_asc_node": 315.4395,
        "meta_arg_of_pericenter": 0.0883,
        "meta_mean_anomaly": 0.0279,
        "meta_ephemeris_type": 0,
        "meta_classification_type": "U",
        "meta_norad_cat_id": 35674,
        "meta_element_set_no": 999,
        "meta_rev_at_epoch": 86119,
        "meta_bstar": 0.0032808477,
        "meta_mean_motion_dot": 0.0001478,
        "meta_mean_motion_ddot": 0,
        "tle_line1": "1 35674U 93036APR 25347.30659341  .00014780  00000+0  32808-2 0  9990",
        "tle_line2": "2 35674  74.0600 315.4395 0096027   0.0883   0.0279 14.54226359861191"
      },
      "geometry": {
        "type": "Point",
        "coordinates": [
          23.031986229916484,
          73.24214528525656
        ]
      }
    },
    {
      "type": "Feature",
      "properties": {
        "norad_id": 35701,
        "name": "COSMOS 2251 DEB",
        "group": "cosmos-2251-debris",
        "lat": 26.335499098025156,
        "lon": -54.018628442566396,
        "alt_km": 1057.759236194077,
        "timestamp": "2025-12-15T10:55:21.541272+00:00",
        "meta_object_name": "COSMOS 2251 DEB",
        "meta_object_id": "1993-036APW",
        "meta_epoch": "2025-12-06T05:57:57.623904",
        "meta_mean_motion": 13.80843435,
        "meta_eccentricity": 0.02897209,
        "meta_inclination": 74.0028,
        "meta_ra_of_asc_node": 313.2955,
        "meta_arg_of_pericenter": 164.0681,
        "meta_mean_anomaly": 196.98,
        "meta_ephemeris_type": 0,
        "meta_classification_type": "U",
        "meta_norad_cat_id": 35701,
        "meta_element_set_no": 999,
        "meta_rev_at_epoch": 62069,
        "meta_bstar": 0.0021223911,
        "meta_mean_motion_dot": 3.05e-05,
        "meta_mean_motion_ddot": 0,
        "tle_line1": "1 35701U 93036APW 25340.24858361  .00003050  00000+0  21224-2 0  9998",
        "tle_line2": "2 35701  74.0028 313.2955 0289720 164.0681 196.9800 13.80843435620696"
      },
      "geometry": {
        "type": "Point",
        "coordinates": [
          -54.018628442566396,
          26.335499098025156
        ]
      }
    },
    {
      "type": "Feature",
      "properties": {
        "norad_id": 35703,
        "name": "COSMOS 2251 DEB",
        "group": "cosmos-2251-debris",
        "lat": 35.16805240689681,
        "lon": 48.962559591537506,
        "alt_km": 577.9552046917488,
        "timestamp": "2025-12-15T10:55:21.541282+00:00",
        "meta_object_name": "COSMOS 2251 DEB",
        "meta_object_id": "1993-036APY",
        "meta_epoch": "2025-12-13T10:25:41.808288",
        "meta_mean_motion": 14.90369832,
        "meta_eccentricity": 0.0064635,
        "meta_inclination": 74.0427,
        "meta_ra_of_asc_node": 41.374,
        "meta_arg_of_pericenter": 111.0276,
        "meta_mean_anomaly": 249.7836,
        "meta_ephemeris_type": 0,
        "meta_classification_type": "U",
        "meta_norad_cat_id": 35703,
        "meta_element_set_no": 999,
        "meta_rev_at_epoch": 66626,
        "meta_bstar": 0.0011888649,
        "meta_mean_motion_dot": 0.00012023,
        "meta_mean_motion_ddot": 0,
        "tle_line1": "1 35703U 93036APY 25347.43451167  .00012023  00000+0  11889-2 0  9997",
        "tle_line2": "2 35703  74.0427  41.3740 0064635 111.0276 249.7836 14.90369832666265"
      },
      "geometry": {
        "type": "Point",
        "coordinates": [
          48.962559591537506,
          35.16805240689681
        ]
      }
    },
    {
      "type": "Feature",
      "properties": {
        "norad_id": 35705,
        "name": "COSMOS 2251 DEB",
        "group": "cosmos-2251-debris",
        "lat": 3.3060967212067145,
        "lon": 131.54469460464793,
        "alt_km": 649.9279650698054,
        "timestamp": "2025-12-15T10:55:21.541292+00:00",
        "meta_object_name": "COSMOS 2251 DEB",
        "meta_object_id": "1993-036AQA",
        "meta_epoch": "2025-12-13T16:30:25.570944",
        "meta_mean_motion": 14.72285684,
        "meta_eccentricity": 0.00330748,
        "meta_inclination": 74.2763,
        "meta_ra_of_asc_node": 133.9994,
        "meta_arg_of_pericenter": 83.0917,
        "meta_mean_anomaly": 277.4017,
        "meta_ephemeris_type": 0,
        "meta_classification_type": "U",
        "meta_norad_cat_id": 35705,
        "meta_element_set_no": 999,
        "meta_rev_at_epoch": 85940,
        "meta_bstar": 0.003032246,
        "meta_mean_motion_dot": 0.00019351,
        "meta_mean_motion_ddot": 0,
        "tle_line1": "1 35705U 93036AQA 25347.68779596  .00019351  00000+0  30322-2 0  9999",
        "tle_line2": "2 35705  74.2763 133.9994 0033074  83.0917 277.4017 14.72285684859405"
      },
      "geometry": {
        "type": "Point",
        "coordinates": [
          131.54469460464793,
          3.3060967212067145
        ]
      }
    }
  ]
}